{
  "type": "FeatureCollection",
  "features": [
    {
      "type": "Feature",
      "geometry": {
        "type": "Polygon",
        "coordinates": [
          [
            [
              6.8801879882812464,
              50.56055967312765
            ],
            [
              6.882247924804684,
              50.56055967312765
            ],
            [
              6.882247924804684,
              50.560123471115176
            ],
            [
              6.884307861328121,
              50.560123471115176
            ],
            [
              6.884307861328121,
              50.55968726506549
            ],
            [
              6.887054443359371,
              50.55968726506549
            ],
            [
              6.887054443359371,
              50.559251054978596
            ],
            [
              6.889801025390621,
              50.559251054978596
            ],
            [
              6.889801025390621,
              50.558814840854474
            ],
            [
              6.892547607421871,
              50.558814840854474
            ],
            [
              6.892547607421871,
              50.55837862269309
            ],
            [
              6.8952941894531214,
              50.55837862269309
            ],
            [
              6.8952941894531214,
              50.55794240049447
            ],
            [
              6.897354125976558,
              50.55794240049447
            ],
            [
              6.897354125976558,
              50.55750617425857
            ],
            [
              6.900100708007809,
              50.55750617425857
            ],
            [
              6.900100708007809,
              50.557069943985404
            ],
            [
              6.902847290039058,
              50.557069943985404
            ],
            [
              6.902847290039058,
              50.55663370967494
            ],
            [
              6.9062805175781214,
              50.55663370967494
            ],
            [
              6.9062805175781214,
              50.556197471327174
            ],
            [
              6.9104003906249964,
              50.556197471327174
            ],
            [
              6.9104003906249964,
              50.555761228942096
            ],
            [
              6.912460327148433,
              50.555761228942096
            ],
            [
              6.912460327148433,
              50.555324982519686
            ],
            [
              6.9145202636718714,
              50.555324982519686
            ],
            [
              6.9145202636718714,
              50.554888732059936
            ],
            [
              6.915893554687496,
              50.555324982519686
            ],
            [
              6.915893554687496,
              50.554888732059936
            ],
            [
              6.9186401367187464,
              50.554888732059936
            ],
            [
              6.9186401367187464,
              50.55445247756284
            ],
            [
              6.9213867187499964,
              50.55445247756284
            ],
            [
              6.9213867187499964,
              50.55401621902837
            ],
            [
              6.924133300781246,
              50.55401621902837
            ],
            [
              6.924133300781246,
              50.553579956456524
            ],
            [
              6.926193237304684,
              50.553579956456524
            ],
            [
              6.926193237304684,
              50.5531436898473
            ],
            [
              6.928939819335933,
              50.5531436898473
            ],
            [
              6.928939819335933,
              50.552707419200686
            ],
            [
              6.931686401367184,
              50.552707419200686
            ],
            [
              6.931686401367184,
              50.55227114451664
            ],
            [
              6.935119628906247,
              50.55227114451664
            ],
            [
              6.935119628906247,
              50.55183486579518
            ],
            [
              6.935806274414058,
              50.55183486579518
            ],
            [
              6.935806274414058,
              50.55227114451664
            ],
            [
              6.9364929199218714,
              50.55227114451664
            ],
            [
              6.9364929199218714,
              50.55183486579518
            ],
            [
              6.938552856445309,
              50.55183486579518
            ],
            [
              6.938552856445309,
              50.55139858303629
            ],
            [
              6.9419860839843714,
              50.55139858303629
            ],
            [
              6.9419860839843714,
              50.55096229623994
            ],
            [
              6.944046020507808,
              50.55096229623994
            ],
            [
              6.944046020507808,
              50.550526005406134
            ],
            [
              6.945419311523434,
              50.550526005406134
            ],
            [
              6.945419311523434,
              50.55008971053486
            ],
            [
              6.946792602539058,
              50.550526005406134
            ],
            [
              6.946792602539058,
              50.55008971053486
            ],
            [
              6.949539184570308,
              50.55008971053486
            ],
            [
              6.949539184570308,
              50.549653411626096
            ],
            [
              6.9515991210937464,
              50.549653411626096
            ],
            [
              6.9515991210937464,
              50.54921710867985
            ],
            [
              6.954345703124996,
              50.54921710867985
            ],
            [
              6.954345703124996,
              50.548780801696076
            ],
            [
              6.9570922851562464,
              50.548780801696076
            ],
            [
              6.9570922851562464,
              50.548344490674786
            ],
            [
              6.959152221679684,
              50.548344490674786
            ],
            [
              6.959152221679684,
              50.547908175615966
            ],
            [
              6.961898803710934,
              50.547908175615966
            ],
            [
              6.961898803710934,
              50.54747185651961
            ],
            [
              6.966705322265621,
              50.54747185651961
            ],
            [
              6.966705322265621,
              50.54703553338568
            ],
            [
              6.968765258789059,
              50.54703553338568
            ],
            [
              6.968765258789059,
              50.546599206214196
            ],
            [
              6.9708251953124964,
              50.546599206214196
            ],
            [
              6.9708251953124964,
              50.54616287500513
            ],
            [
              6.9749450683593714,
              50.54616287500513
            ],
            [
              6.9749450683593714,
              50.54572653975846
            ],
            [
              6.978378295898433,
              50.54572653975846
            ],
            [
              6.978378295898433,
              50.545290200474206
            ],
            [
              6.981124877929683,
              50.545290200474206
            ],
            [
              6.981124877929683,
              50.54485385715232
            ],
            [
              6.983871459960934,
              50.54485385715232
            ],
            [
              6.983871459960934,
              50.54441750979281
            ],
            [
              6.986618041992183,
              50.54441750979281
            ],
            [
              6.986618041992183,
              50.54398115839566
            ],
            [
              6.989364624023434,
              50.54398115839566
            ],
            [
              6.989364624023434,
              50.54354480296085
            ],
            [
              6.993484497070309,
              50.54354480296085
            ],
            [
              6.993484497070309,
              50.54310844348838
            ],
            [
              6.9955444335937464,
              50.54310844348838
            ],
            [
              6.9955444335937464,
              50.54267207997824
            ],
            [
              6.9969177246093714,
              50.54267207997824
            ],
            [
              6.9969177246093714,
              50.542235712430404
            ],
            [
              7.001037597656246,
              50.542235712430404
            ],
            [
              7.001037597656246,
              50.54179934084487
            ],
            [
              7.003784179687496,
              50.54179934084487
            ],
            [
              7.003784179687496,
              50.541362965221616
            ],
            [
              7.005844116210934,
              50.541362965221616
            ],
            [
              7.005844116210934,
              50.540926585560634
            ],
            [
              7.0092773437499964,
              50.540926585560634
            ],
            [
              7.0092773437499964,
              50.54049020186193
            ],
            [
              7.0120239257812464,
              50.54049020186193
            ],
            [
              7.0120239257812464,
              50.540053814125464
            ],
            [
              7.0147705078124964,
              50.540053814125464
            ],
            [
              7.0147705078124964,
              50.53961742235124
            ],
            [
              7.0175170898437464,
              50.53961742235124
            ],
            [
              7.0175170898437464,
              50.53918102653925
            ],
            [
              7.0202636718749964,
              50.53918102653925
            ],
            [
              7.0202636718749964,
              50.538744626689464
            ],
            [
              7.022323608398433,
              50.538744626689464
            ],
            [
              7.022323608398433,
              50.53918102653925
            ],
            [
              7.0230102539062464,
              50.53918102653925
            ],
            [
              7.0230102539062464,
              50.538744626689464
            ],
            [
              7.025070190429684,
              50.538744626689464
            ],
            [
              7.025070190429684,
              50.53830822280188
            ],
            [
              7.026443481445309,
              50.53830822280188
            ],
            [
              7.026443481445309,
              50.537871814876496
            ],
            [
              7.027816772460934,
              50.53830822280188
            ],
            [
              7.0285034179687464,
              50.53743540291329
            ],
            [
              7.031249999999996,
              50.53743540291329
            ],
            [
              7.031249999999996,
              50.53699898691225
            ],
            [
              7.0326232910156214,
              50.53699898691225
            ],
            [
              7.0326232910156214,
              50.53656256687336
            ],
            [
              7.035369873046871,
              50.53656256687336
            ],
            [
              7.035369873046871,
              50.53612614279661
            ],
            [
              7.038116455078121,
              50.53612614279661
            ],
            [
              7.038116455078121,
              50.53568971468199
            ],
            [
              7.040176391601559,
              50.53568971468199
            ],
            [
              7.040176391601559,
              50.535253282529496
            ],
            [
              7.041549682617184,
              50.535253282529496
            ],
            [
              7.041549682617184,
              50.534816846339105
            ],
            [
              7.044296264648434,
              50.534816846339105
            ],
            [
              7.044296264648434,
              50.534380406110806
            ],
            [
              7.048416137695308,
              50.534380406110806
            ],
            [
              7.048416137695308,
              50.533943961844585
            ],
            [
              7.051162719726559,
              50.533943961844585
            ],
            [
              7.051162719726559,
              50.533507513540435
            ],
            [
              7.0545959472656214,
              50.533507513540435
            ],
            [
              7.0545959472656214,
              50.533071061198356
            ],
            [
              7.056655883789058,
              50.533071061198356
            ],
            [
              7.056655883789058,
              50.532634604818305
            ],
            [
              7.058029174804684,
              50.533071061198356
            ],
            [
              7.0587158203124964,
              50.532198144400304
            ],
            [
              7.0628356933593714,
              50.532198144400304
            ],
            [
              7.0628356933593714,
              50.53176167994432
            ],
            [
              7.064895629882809,
              50.53176167994432
            ],
            [
              7.064895629882809,
              50.53132521145034
            ],
            [
              7.06764221191406,
              50.53132521145034
            ],
            [
              7.06764221191406,
              50.530888738918364
            ],
            [
              7.071762084960934,
              50.530888738918364
            ],
            [
              7.071762084960934,
              50.53045226234837
            ],
            [
              7.073822021484371,
              50.53045226234837
            ],
            [
              7.073822021484371,
              50.53001578174035
            ],
            [
              7.075195312499996,
              50.53045226234837
            ],
            [
              7.075195312499996,
              50.53001578174035
            ],
            [
              7.077255249023434,
              50.53001578174035
            ],
            [
              7.077255249023434,
              50.529579297094294
            ],
            [
              7.078628540039059,
              50.529579297094294
            ],
            [
              7.078628540039059,
              50.52914280841018
            ],
            [
              7.080001831054684,
              50.529579297094294
            ],
            [
              7.080001831054684,
              50.52914280841018
            ],
            [
              7.0820617675781214,
              50.52914280841018
            ],
            [
              7.0820617675781214,
              50.52870631568801
            ],
            [
              7.0848083496093714,
              50.52870631568801
            ],
            [
              7.0848083496093714,
              50.527833318129446
            ],
            [
              7.084121704101559,
              50.527833318129446
            ],
            [
              7.084121704101559,
              50.52477769947372
            ],
            [
              7.0834350585937464,
              50.52477769947372
            ],
            [
              7.0834350585937464,
              50.52215844027985
            ],
            [
              7.082748413085934,
              50.52215844027985
            ],
            [
              7.082748413085934,
              50.51953903570882
            ],
            [
              7.0820617675781214,
              50.51953903570882
            ],
            [
              7.0820617675781214,
              50.51298988823914
            ],
            [
              7.081375122070309,
              50.51298988823914
            ],
            [
              7.081375122070309,
              50.512553246100225
            ],
            [
              7.0820617675781214,
              50.512553246100225
            ],
            [
              7.0820617675781214,
              50.51124329545232
            ],
            [
              7.081375122070309,
              50.51124329545232
            ],
            [
              7.081375122070309,
              50.50425627812863
            ],
            [
              7.0820617675781214,
              50.50425627812863
            ],
            [
              7.0820617675781214,
              50.503382828266744
            ],
            [
              7.082748413085934,
              50.503382828266744
            ],
            [
              7.082748413085934,
              50.50250936224978
            ],
            [
              7.0820617675781214,
              50.50250936224978
            ],
            [
              7.0820617675781214,
              50.50119913293333
            ],
            [
              7.081375122070309,
              50.50119913293333
            ],
            [
              7.081375122070309,
              50.50076238175021
            ],
            [
              7.0820617675781214,
              50.50076238175021
            ],
            [
              7.0820617675781214,
              50.50032562652825
            ],
            [
              7.081375122070309,
              50.50032562652825
            ],
            [
              7.081375122070309,
              50.495521052519635
            ],
            [
              7.0820617675781214,
              50.495521052519635
            ],
            [
              7.0820617675781214,
              50.48678421131639
            ],
            [
              7.080688476562497,
              50.48678421131639
            ],
            [
              7.080688476562497,
              50.48459974856777
            ],
            [
              7.081375122070309,
              50.48459974856777
            ],
            [
              7.081375122070309,
              50.48372593519341
            ],
            [
              7.0820617675781214,
              50.48372593519341
            ],
            [
              7.0820617675781214,
              50.48023052012272
            ],
            [
              7.082748413085934,
              50.48023052012272
            ],
            [
              7.082748413085934,
              50.47760878916507
            ],
            [
              7.0820617675781214,
              50.47760878916507
            ],
            [
              7.0820617675781214,
              50.46799453147571
            ],
            [
              7.081375122070309,
              50.46799453147571
            ],
            [
              7.081375122070309,
              50.46537212186417
            ],
            [
              7.0820617675781214,
              50.46537212186417
            ],
            [
              7.0820617675781214,
              50.46493503945633
            ],
            [
              7.081375122070309,
              50.46493503945633
            ],
            [
              7.081375122070309,
              50.46406086252115
            ],
            [
              7.0820617675781214,
              50.46406086252115
            ],
            [
              7.0820617675781214,
              50.46231246017257
            ],
            [
              7.082748413085934,
              50.46231246017257
            ],
            [
              7.0820617675781214,
              50.46143823475897
            ],
            [
              7.082748413085934,
              50.46143823475897
            ],
            [
              7.082748413085934,
              50.45837831855342
            ],
            [
              7.0820617675781214,
              50.45837831855342
            ],
            [
              7.0820617675781214,
              50.45750402042058
            ],
            [
              7.081375122070309,
              50.45750402042058
            ],
            [
              7.081375122070309,
              50.45313228735313
            ],
            [
              7.0820617675781214,
              50.45313228735313
            ],
            [
              7.0820617675781214,
              50.4526950918258
            ],
            [
              7.081375122070309,
              50.4526950918258
            ],
            [
              7.081375122070309,
              50.45050905358659
            ],
            [
              7.080688476562497,
              50.45050905358659
            ],
            [
              7.080688476562497,
              50.44832291434207
            ],
            [
              7.080001831054684,
              50.44832291434207
            ],
            [
              7.080001831054684,
              50.44657393022162
            ],
            [
              7.080688476562497,
              50.44657393022162
            ],
            [
              7.080688476562497,
              50.444387609163776
            ],
            [
              7.081375122070309,
              50.444387609163776
            ],
            [
              7.081375122070309,
              50.44045197671474
            ],
            [
              7.080688476562497,
              50.44045197671474
            ],
            [
              7.080688476562497,
              50.43695336200726
            ],
            [
              7.080001831054684,
              50.43695336200726
            ],
            [
              7.080001831054684,
              50.43214234454253
            ],
            [
              7.080688476562497,
              50.43214234454253
            ],
            [
              7.080688476562497,
              50.4277682680276
            ],
            [
              7.081375122070309,
              50.4277682680276
            ],
            [
              7.081375122070309,
              50.42120639559599
            ],
            [
              7.0820617675781214,
              50.42120639559599
            ],
            [
              7.0820617675781214,
              50.42076890510627
            ],
            [
              7.081375122070309,
              50.42076890510627
            ],
            [
              7.081375122070309,
              50.42033141057553
            ],
            [
              7.0820617675781214,
              50.42033141057553
            ],
            [
              7.0820617675781214,
              50.40983032950141
            ],
            [
              7.081375122070309,
              50.40983032950141
            ],
            [
              7.081375122070309,
              50.40632945186324
            ],
            [
              7.0820617675781214,
              50.40632945186324
            ],
            [
              7.0820617675781214,
              50.40282831557495
            ],
            [
              7.082748413085934,
              50.40282831557495
            ],
            [
              7.082748413085934,
              50.4006399740463
            ],
            [
              7.0820617675781214,
              50.4006399740463
            ],
            [
              7.0820617675781214,
              50.39582526702381
            ],
            [
              7.081375122070309,
              50.39582526702381
            ],
            [
              7.081375122070309,
              50.39319885706811
            ],
            [
              7.0820617675781214,
              50.39319885706811
            ],
            [
              7.0820617675781214,
              50.391010070956696
            ],
            [
              7.081375122070309,
              50.391010070956696
            ],
            [
              7.081375122070309,
              50.378751001370055
            ],
            [
              7.0820617675781214,
              50.378751001370055
            ],
            [
              7.0820617675781214,
              50.36999999999999
            ],
            [
              6.8801879882812464,
              50.36999999999999
            ],
            [
              6.8801879882812464,
              50.56055967312765
            ]
          ],
          [
            [
              6.9021606445312464,
              50.49115283387327
            ],
            [
              6.902847290039058,
              50.49115283387327
            ],
            [
              6.902847290039058,
              50.49158967391369
            ],
            [
              6.9021606445312464,
              50.49158967391369
            ],
            [
              6.9021606445312464,
              50.49115283387327
            ]
          ]
        ]
      },
      "properties": {
        "observation_id": "ahr-2021-2021-07-18",
        "meaning": "Source RGB available; not a flood, cloud or reliability mask"
      }
    }
  ]
}
