{
  "type": "FeatureCollection",
  "features": [
    {
      "type": "Feature",
      "geometry": {
        "type": "Polygon",
        "coordinates": [
          [
            [
              7.154846191406247,
              50.47236489098386
            ],
            [
              7.154846191406247,
              50.471927873211534
            ],
            [
              7.1411132812499964,
              50.471927873211534
            ],
            [
              7.1411132812499964,
              50.47236489098386
            ],
            [
              7.140426635742184,
              50.47236489098386
            ],
            [
              7.140426635742184,
              50.471927873211534
            ],
            [
              7.139053344726559,
              50.471927873211534
            ],
            [
              7.139053344726559,
              50.47236489098386
            ],
            [
              7.137680053710935,
              50.47236489098386
            ],
            [
              7.137680053710935,
              50.471927873211534
            ],
            [
              7.0875549316406214,
              50.471927873211534
            ],
            [
              7.0875549316406214,
              50.47149085139956
            ],
            [
              7.0834350585937464,
              50.47149085139956
            ],
            [
              7.0834350585937464,
              50.471927873211534
            ],
            [
              7.082748413085934,
              50.471927873211534
            ],
            [
              7.082748413085934,
              50.47149085139956
            ],
            [
              7.0820617675781214,
              50.47149085139956
            ],
            [
              7.0820617675781214,
              50.471927873211534
            ],
            [
              7.080688476562497,
              50.471927873211534
            ],
            [
              7.080688476562497,
              50.47149085139956
            ],
            [
              7.044296264648434,
              50.47149085139956
            ],
            [
              7.044296264648434,
              50.47323891440969
            ],
            [
              7.0079040527343714,
              50.47323891440969
            ],
            [
              7.0079040527343714,
              50.47367592006321
            ],
            [
              7.003097534179684,
              50.47367592006321
            ],
            [
              7.003097534179684,
              50.47323891440969
            ],
            [
              7.001724243164059,
              50.47323891440969
            ],
            [
              7.001724243164059,
              50.47367592006321
            ],
            [
              7.001037597656246,
              50.47367592006321
            ],
            [
              7.001037597656246,
              50.47323891440969
            ],
            [
              6.9776916503906214,
              50.47323891440969
            ],
            [
              6.9776916503906214,
              50.47367592006321
            ],
            [
              6.9749450683593714,
              50.47367592006321
            ],
            [
              6.9749450683593714,
              50.47323891440969
            ],
            [
              6.8801879882812464,
              50.47323891440969
            ],
            [
              6.8801879882812464,
              50.58977601184108
            ],
            [
              7.169999999999999,
              50.58977601184108
            ],
            [
              7.169999999999999,
              50.47236489098386
            ],
            [
              7.154846191406247,
              50.47236489098386
            ]
          ],
          [
            [
              6.885681152343746,
              50.53743540291329
            ],
            [
              6.886367797851559,
              50.53743540291329
            ],
            [
              6.886367797851559,
              50.537871814876496
            ],
            [
              6.885681152343746,
              50.537871814876496
            ],
            [
              6.885681152343746,
              50.53743540291329
            ]
          ],
          [
            [
              6.919326782226559,
              50.523468088048766
            ],
            [
              6.9200134277343714,
              50.523468088048766
            ],
            [
              6.9200134277343714,
              50.52390462922862
            ],
            [
              6.919326782226559,
              50.52390462922862
            ],
            [
              6.919326782226559,
              50.523468088048766
            ]
          ],
          [
            [
              6.928253173828121,
              50.52041218671901
            ],
            [
              6.928939819335933,
              50.52041218671901
            ],
            [
              6.928939819335933,
              50.520848756166636
            ],
            [
              6.928253173828121,
              50.520848756166636
            ],
            [
              6.928253173828121,
              50.52041218671901
            ]
          ],
          [
            [
              7.0697021484374964,
              50.50207262318311
            ],
            [
              7.070388793945309,
              50.50207262318311
            ],
            [
              7.070388793945309,
              50.50250936224978
            ],
            [
              7.0697021484374964,
              50.50250936224978
            ],
            [
              7.0697021484374964,
              50.50207262318311
            ]
          ],
          [
            [
              7.086868286132808,
              50.49988886726743
            ],
            [
              7.0875549316406214,
              50.49988886726743
            ],
            [
              7.0875549316406214,
              50.50032562652825
            ],
            [
              7.086868286132808,
              50.50032562652825
            ],
            [
              7.086868286132808,
              50.49988886726743
            ]
          ],
          [
            [
              7.088241577148434,
              50.48853170880917
            ],
            [
              7.0889282226562464,
              50.48853170880917
            ],
            [
              7.0889282226562464,
              50.48896857308439
            ],
            [
              7.088241577148434,
              50.48896857308439
            ],
            [
              7.088241577148434,
              50.48853170880917
            ]
          ],
          [
            [
              7.154159545898434,
              50.482852105661834
            ],
            [
              7.154846191406247,
              50.482852105661834
            ],
            [
              7.154846191406247,
              50.483289022447295
            ],
            [
              7.154159545898434,
              50.483289022447295
            ],
            [
              7.154159545898434,
              50.482852105661834
            ]
          ]
        ]
      },
      "properties": {
        "observation_id": "ahr-2021-2021-02-11",
        "meaning": "Source RGB available; not a flood, cloud or reliability mask"
      }
    }
  ]
}
